CCSDS_OMM_VERS = 2.0
CREATION_DATE  = 
ORIGINATOR     = 

OBJECT_NAME    = SL-8 R/B
OBJECT_ID      = 1985-006B
CENTER_NAME    = EARTH
REF_FRAME      = TEME
TIME_SYSTEM    = UTC
MEAN_ELEMENT_THEORY = SGP/SGP4

EPOCH          = 2026-02-27T21:46:14.830176
MEAN_MOTION    = 14.37776654
ECCENTRICITY   = .00188534
INCLINATION    = 74.0437
RA_OF_ASC_NODE = 279.1508
ARG_OF_PERICENTER = 199.0018
MEAN_ANOMALY   = 171.9984

EPHEMERIS_TYPE = 0
CLASSIFICATION_TYPE = U
NORAD_CAT_ID   = 15483
ELEMENT_SET_NO = 999
REV_AT_EPOCH   = 15262
BSTAR          = .65233911E-4
MEAN_MOTION_DOT = .17E-5
MEAN_MOTION_DDOT = 0

CCSDS_OMM_VERS = 2.0
CREATION_DATE  = 
ORIGINATOR     = 

OBJECT_NAME    = SL-12 R/B(2)
OBJECT_ID      = 1985-042D
CENTER_NAME    = EARTH
REF_FRAME      = TEME
TIME_SYSTEM    = UTC
MEAN_ELEMENT_THEORY = SGP/SGP4

EPOCH          = 2026-02-27T20:49:12.319680
MEAN_MOTION    = 14.21979408
ECCENTRICITY   = .00337394
INCLINATION    = 71.1069
RA_OF_ASC_NODE = 108.4818
ARG_OF_PERICENTER = 144.1738
MEAN_ANOMALY   = 28.2102

EPHEMERIS_TYPE = 0
CLASSIFICATION_TYPE = U
NORAD_CAT_ID   = 15772
ELEMENT_SET_NO = 999
REV_AT_EPOCH   = 11299
BSTAR          = .47033518E-4
MEAN_MOTION_DOT = .57E-6
MEAN_MOTION_DDOT = 0

CCSDS_OMM_VERS = 2.0
CREATION_DATE  = 
ORIGINATOR     = 

OBJECT_NAME    = SL-14 R/B
OBJECT_ID      = 1985-069B
CENTER_NAME    = EARTH
REF_FRAME      = TEME
TIME_SYSTEM    = UTC
MEAN_ELEMENT_THEORY = SGP/SGP4

EPOCH          = 2026-02-27T22:00:22.262976
MEAN_MOTION    = 14.86419586
ECCENTRICITY   = .00176547
INCLINATION    = 82.5263
RA_OF_ASC_NODE = 34.1223
ARG_OF_PERICENTER = 221.2159
MEAN_ANOMALY   = 138.7726

EPHEMERIS_TYPE = 0
CLASSIFICATION_TYPE = U
NORAD_CAT_ID   = 15945
ELEMENT_SET_NO = 999
REV_AT_EPOCH   = 17138
BSTAR          = .64743532E-4
MEAN_MOTION_DOT = .597E-5
MEAN_MOTION_DDOT = 0

CCSDS_OMM_VERS = 2.0
CREATION_DATE  = 
ORIGINATOR     = 

OBJECT_NAME    = SL-16 R/B
OBJECT_ID      = 1985-097B
CENTER_NAME    = EARTH
REF_FRAME      = TEME
TIME_SYSTEM    = UTC
MEAN_ELEMENT_THEORY = SGP/SGP4

EPOCH          = 2026-02-27T12:59:23.486784
MEAN_MOTION    = 14.16598512
ECCENTRICITY   = .00098091
INCLINATION    = 71.0038
RA_OF_ASC_NODE = 161.9178
ARG_OF_PERICENTER = 271.3395
MEAN_ANOMALY   = 176.8694

EPHEMERIS_TYPE = 0
CLASSIFICATION_TYPE = U
NORAD_CAT_ID   = 16182
ELEMENT_SET_NO = 999
REV_AT_EPOCH   = 8579
BSTAR          = .11786959E-3
MEAN_MOTION_DOT = .187E-5
MEAN_MOTION_DDOT = 0

CCSDS_OMM_VERS = 2.0
CREATION_DATE  = 
ORIGINATOR     = 

OBJECT_NAME    = SL-14 R/B
OBJECT_ID      = 1986-006B
CENTER_NAME    = EARTH
REF_FRAME      = TEME
TIME_SYSTEM    = UTC
MEAN_ELEMENT_THEORY = SGP/SGP4

EPOCH          = 2026-02-27T06:58:48.493920
MEAN_MOTION    = 14.86799270
ECCENTRICITY   = .0075365
INCLINATION    = 82.5237
RA_OF_ASC_NODE = 269.5267
ARG_OF_PERICENTER = 307.9444
MEAN_ANOMALY   = 51.4977

EPHEMERIS_TYPE = 0
CLASSIFICATION_TYPE = U
NORAD_CAT_ID   = 16496
ELEMENT_SET_NO = 999
REV_AT_EPOCH   = 14766
BSTAR          = .64035E-4
MEAN_MOTION_DOT = .626E-5
MEAN_MOTION_DDOT = 0

CCSDS_OMM_VERS = 2.0
CREATION_DATE  = 
ORIGINATOR     = 

OBJECT_NAME    = COSMOS 1743
OBJECT_ID      = 1986-034A
CENTER_NAME    = EARTH
REF_FRAME      = TEME
TIME_SYSTEM    = UTC
MEAN_ELEMENT_THEORY = SGP/SGP4

EPOCH          = 2026-02-27T11:52:50.782944
MEAN_MOTION    = 15.57740930
ECCENTRICITY   = .0002798
INCLINATION    = 82.5310
RA_OF_ASC_NODE = 84.5252
ARG_OF_PERICENTER = 353.1848
MEAN_ANOMALY   = 6.9369

EPHEMERIS_TYPE = 0
CLASSIFICATION_TYPE = U
NORAD_CAT_ID   = 16719
ELEMENT_SET_NO = 999
REV_AT_EPOCH   = 17866
BSTAR          = .49776461E-3
MEAN_MOTION_DOT = .3706E-3
MEAN_MOTION_DDOT = 0

CCSDS_OMM_VERS = 2.0
CREATION_DATE  = 
ORIGINATOR     = 

OBJECT_NAME    = SL-14 R/B
OBJECT_ID      = 1986-046B
CENTER_NAME    = EARTH
REF_FRAME      = TEME
TIME_SYSTEM    = UTC
MEAN_ELEMENT_THEORY = SGP/SGP4

EPOCH          = 2026-02-27T10:25:50.730816
MEAN_MOTION    = 14.85578732
ECCENTRICITY   = .00215526
INCLINATION    = 82.4787
RA_OF_ASC_NODE = 89.8746
ARG_OF_PERICENTER = 261.3481
MEAN_ANOMALY   = 98.5293

EPHEMERIS_TYPE = 0
CLASSIFICATION_TYPE = U
NORAD_CAT_ID   = 16792
ELEMENT_SET_NO = 999
REV_AT_EPOCH   = 12488
BSTAR          = .52733567E-4
MEAN_MOTION_DOT = .482E-5
MEAN_MOTION_DDOT = 0

CCSDS_OMM_VERS = 2.0
CREATION_DATE  = 
ORIGINATOR     = 

OBJECT_NAME    = SL-14 R/B
OBJECT_ID      = 1986-055B
CENTER_NAME    = EARTH
REF_FRAME      = TEME
TIME_SYSTEM    = UTC
MEAN_ELEMENT_THEORY = SGP/SGP4

EPOCH          = 2026-02-27T11:43:18.490080
MEAN_MOTION    = 14.85631614
ECCENTRICITY   = .00190776
INCLINATION    = 82.5220
RA_OF_ASC_NODE = 136.2614
ARG_OF_PERICENTER = 10.7612
MEAN_ANOMALY   = 359.7570

EPHEMERIS_TYPE = 0
CLASSIFICATION_TYPE = U
NORAD_CAT_ID   = 16882
ELEMENT_SET_NO = 999
REV_AT_EPOCH   = 11785
BSTAR          = .54374509E-4
MEAN_MOTION_DOT = .496E-5
MEAN_MOTION_DDOT = 0

CCSDS_OMM_VERS = 2.0
CREATION_DATE  = 
ORIGINATOR     = 

OBJECT_NAME    = AJISAI (EGS)
OBJECT_ID      = 1986-061A
CENTER_NAME    = EARTH
REF_FRAME      = TEME
TIME_SYSTEM    = UTC
MEAN_ELEMENT_THEORY = SGP/SGP4

EPOCH          = 2026-02-27T22:37:35.024736
MEAN_MOTION    = 12.44515465
ECCENTRICITY   = .00112448
INCLINATION    = 50.0083
RA_OF_ASC_NODE = 123.3205
ARG_OF_PERICENTER = 261.9333
MEAN_ANOMALY   = 278.2128

EPHEMERIS_TYPE = 0
CLASSIFICATION_TYPE = U
NORAD_CAT_ID   = 16908
ELEMENT_SET_NO = 999
REV_AT_EPOCH   = 46678
BSTAR          = -.36116109E-4
MEAN_MOTION_DOT = -.102E-5
MEAN_MOTION_DDOT = 0

CCSDS_OMM_VERS = 2.0
CREATION_DATE  = 
ORIGINATOR     = 

OBJECT_NAME    = COSMOS 1812
OBJECT_ID      = 1987-003A
CENTER_NAME    = EARTH
REF_FRAME      = TEME
TIME_SYSTEM    = UTC
MEAN_ELEMENT_THEORY = SGP/SGP4

EPOCH          = 2026-02-27T20:18:47.955168
MEAN_MOTION    = 16.13908496
ECCENTRICITY   = .00057881
INCLINATION    = 82.4741
RA_OF_ASC_NODE = 206.9066
ARG_OF_PERICENTER = 288.0914
MEAN_ANOMALY   = 71.9740

EPHEMERIS_TYPE = 0
CLASSIFICATION_TYPE = U
NORAD_CAT_ID   = 17295
ELEMENT_SET_NO = 999
REV_AT_EPOCH   = 14289
BSTAR          = .84431166E-3
MEAN_MOTION_DOT = .1008326E-1
MEAN_MOTION_DDOT = .65426882E-3

CCSDS_OMM_VERS = 2.0
CREATION_DATE  = 
ORIGINATOR     = 

OBJECT_NAME    = SL-14 R/B
OBJECT_ID      = 1987-024B
CENTER_NAME    = EARTH
REF_FRAME      = TEME
TIME_SYSTEM    = UTC
MEAN_ELEMENT_THEORY = SGP/SGP4

EPOCH          = 2026-02-27T11:19:20.110656
MEAN_MOTION    = 14.86120937
ECCENTRICITY   = .00167836
INCLINATION    = 82.5259
RA_OF_ASC_NODE = 102.3696
ARG_OF_PERICENTER = 296.8423
MEAN_ANOMALY   = 63.1077

EPHEMERIS_TYPE = 0
CLASSIFICATION_TYPE = U
NORAD_CAT_ID   = 17567
ELEMENT_SET_NO = 999
REV_AT_EPOCH   = 8661
BSTAR          = .49248869E-4
MEAN_MOTION_DOT = .456E-5
MEAN_MOTION_DDOT = 0

CCSDS_OMM_VERS = 2.0
CREATION_DATE  = 
ORIGINATOR     = 

OBJECT_NAME    = COSMOS 1833
OBJECT_ID      = 1987-027A
CENTER_NAME    = EARTH
REF_FRAME      = TEME
TIME_SYSTEM    = UTC
MEAN_ELEMENT_THEORY = SGP/SGP4

EPOCH          = 2026-02-27T22:47:37.121280
MEAN_MOTION    = 14.13056631
ECCENTRICITY   = .002467
INCLINATION    = 70.9234
RA_OF_ASC_NODE = 346.4877
ARG_OF_PERICENTER = 227.9155
MEAN_ANOMALY   = 131.9868

EPHEMERIS_TYPE = 0
CLASSIFICATION_TYPE = U
NORAD_CAT_ID   = 17589
ELEMENT_SET_NO = 999
REV_AT_EPOCH   = 894
BSTAR          = -.41540618E-4
MEAN_MOTION_DOT = -.126E-5
MEAN_MOTION_DDOT = 0

CCSDS_OMM_VERS = 2.0
CREATION_DATE  = 
ORIGINATOR     = 

OBJECT_NAME    = SL-16 R/B
OBJECT_ID      = 1987-027B
CENTER_NAME    = EARTH
REF_FRAME      = TEME
TIME_SYSTEM    = UTC
MEAN_ELEMENT_THEORY = SGP/SGP4

EPOCH          = 2026-02-27T22:50:20.638464
MEAN_MOTION    = 14.17167132
ECCENTRICITY   = .00039012
INCLINATION    = 71.0026
RA_OF_ASC_NODE = 297.0169
ARG_OF_PERICENTER = 162.4426
MEAN_ANOMALY   = 197.6833

EPHEMERIS_TYPE = 0
CLASSIFICATION_TYPE = U
NORAD_CAT_ID   = 17590
ELEMENT_SET_NO = 999
REV_AT_EPOCH   = 1396
BSTAR          = -.3494569E-4
MEAN_MOTION_DOT = -.118E-5
MEAN_MOTION_DDOT = 0

CCSDS_OMM_VERS = 2.0
CREATION_DATE  = 
ORIGINATOR     = 

OBJECT_NAME    = SL-14 R/B
OBJECT_ID      = 1987-038B
CENTER_NAME    = EARTH
REF_FRAME      = TEME
TIME_SYSTEM    = UTC
MEAN_ELEMENT_THEORY = SGP/SGP4

EPOCH          = 2026-02-27T22:23:33.840384
MEAN_MOTION    = 14.85359147
ECCENTRICITY   = .0018822
INCLINATION    = 82.5020
RA_OF_ASC_NODE = 305.9987
ARG_OF_PERICENTER = 192.4918
MEAN_ANOMALY   = 167.5834

EPHEMERIS_TYPE = 0
CLASSIFICATION_TYPE = U
NORAD_CAT_ID   = 17912
ELEMENT_SET_NO = 999
REV_AT_EPOCH   = 7778
BSTAR          = .50896439E-4
MEAN_MOTION_DOT = .463E-5
MEAN_MOTION_DDOT = 0

CCSDS_OMM_VERS = 2.0
CREATION_DATE  = 
ORIGINATOR     = 

OBJECT_NAME    = COSMOS 1844
OBJECT_ID      = 1987-041A
CENTER_NAME    = EARTH
REF_FRAME      = TEME
TIME_SYSTEM    = UTC
MEAN_ELEMENT_THEORY = SGP/SGP4

EPOCH          = 2026-02-27T17:05:50.307648
MEAN_MOTION    = 14.14553019
ECCENTRICITY   = .00294925
INCLINATION    = 70.8990
RA_OF_ASC_NODE = 55.2199
ARG_OF_PERICENTER = 33.1778
MEAN_ANOMALY   = 327.1185

EPHEMERIS_TYPE = 0
CLASSIFICATION_TYPE = U
NORAD_CAT_ID   = 17973
ELEMENT_SET_NO = 999
REV_AT_EPOCH   = 217
BSTAR          = .20930948E-4
MEAN_MOTION_DOT = -.8E-7
MEAN_MOTION_DDOT = 0

